{
  "type": "FeatureCollection",
  "features": [
    {
      "type": "Feature",
      "properties": {
        "norad_id": 40894,
        "name": "GAOFEN-9 01",
        "group": "resource",
        "lat": 12.868996683323152,
        "lon": -151.0369251262967,
        "alt_km": 637.4951840792255,
        "timestamp": "2025-12-14T07:33:19.135192+00:00",
        "meta_object_name": "GAOFEN-9 01",
        "meta_object_id": "2015-047A",
        "meta_epoch": "2025-12-13T16:13:36.940800",
        "meta_mean_motion": 14.82425972,
        "meta_eccentricity": 0.00283091,
        "meta_inclination": 97.6546,
        "meta_ra_of_asc_node": 26.5912,
        "meta_arg_of_pericenter": 31.3692,
        "meta_mean_anomaly": 328.9204,
        "meta_ephemeris_type": 0,
        "meta_classification_type": "U",
        "meta_norad_cat_id": 40894,
        "meta_element_set_no": 999,
        "meta_rev_at_epoch": 55270,
        "meta_bstar": 0.00022212091,
        "meta_mean_motion_dot": 1.741e-05,
        "meta_mean_motion_ddot": 0,
        "tle_line1": "1 40894U 15047A   25347.67612200  .00001741  00000+0  22212-3 0  9991",
        "tle_line2": "2 40894  97.6546  26.5912 0028309  31.3692 328.9204 14.82425972552706"
      },
      "geometry": {
        "type": "Point",
        "coordinates": [
          -151.0369251262967,
          12.868996683323152
        ]
      }
    },
    {
      "type": "Feature",
      "properties": {
        "norad_id": 41026,
        "name": "YAOGAN-28",
        "group": "resource",
        "lat": -15.634287041726905,
        "lon": -55.988100936755814,
        "alt_km": 495.2643400792849,
        "timestamp": "2025-12-14T07:33:19.135203+00:00",
        "meta_object_name": "YAOGAN-28",
        "meta_object_id": "2015-064A",
        "meta_epoch": "2025-12-13T16:31:19.311744",
        "meta_mean_motion": 15.24376338,
        "meta_eccentricity": 0.00123994,
        "meta_inclination": 97.2801,
        "meta_ra_of_asc_node": 125.4536,
        "meta_arg_of_pericenter": 122.9933,
        "meta_mean_anomaly": 237.2499,
        "meta_ephemeris_type": 0,
        "meta_classification_type": "U",
        "meta_norad_cat_id": 41026,
        "meta_element_set_no": 999,
        "meta_rev_at_epoch": 56239,
        "meta_bstar": 0.00045650045,
        "meta_mean_motion_dot": 0.00011142,
        "meta_mean_motion_ddot": 0,
        "tle_line1": "1 41026U 15064A   25347.68841796  .00011142  00000+0  45650-3 0  9990",
        "tle_line2": "2 41026  97.2801 125.4536 0012399 122.9933 237.2499 15.24376338562394"
      },
      "geometry": {
        "type": "Point",
        "coordinates": [
          -55.988100936755814,
          -15.634287041726905
        ]
      }
    },
    {
      "type": "Feature",
      "properties": {
        "norad_id": 41038,
        "name": "YAOGAN-29",
        "group": "resource",
        "lat": 56.23710589261952,
        "lon": -0.6874603102416703,
        "alt_km": 614.9093818027868,
        "timestamp": "2025-12-14T07:33:19.135213+00:00",
        "meta_object_name": "YAOGAN-29",
        "meta_object_id": "2015-069A",
        "meta_epoch": "2025-12-13T16:43:25.273056",
        "meta_mean_motion": 14.82885115,
        "meta_eccentricity": 9.95e-06,
        "meta_inclination": 98.0223,
        "meta_ra_of_asc_node": 10.8716,
        "meta_arg_of_pericenter": 281.8676,
        "meta_mean_anomaly": 78.2526,
        "meta_ephemeris_type": 0,
        "meta_classification_type": "U",
        "meta_norad_cat_id": 41038,
        "meta_element_set_no": 999,
        "meta_rev_at_epoch": 54313,
        "meta_bstar": 0.00014713133,
        "meta_mean_motion_dot": 1.138e-05,
        "meta_mean_motion_ddot": 0,
        "tle_line1": "1 41038U 15069A   25347.69682029  .00001138  00000+0  14713-3 0  9991",
        "tle_line2": "2 41038  98.0223  10.8716 0000099 281.8676  78.2526 14.82885115543130"
      },
      "geometry": {
        "type": "Point",
        "coordinates": [
          -0.6874603102416703,
          56.23710589261952
        ]
      }
    },
    {
      "type": "Feature",
      "properties": {
        "norad_id": 41167,
        "name": "KENT RIDGE 1",
        "group": "resource",
        "lat": -1.7894143060160586,
        "lon": 26.176728890329862,
        "alt_km": 493.4644170175925,
        "timestamp": "2025-12-14T07:33:19.135224+00:00",
        "meta_object_name": "KENT RIDGE 1",
        "meta_object_id": "2015-077B",
        "meta_epoch": "2025-12-12T23:16:30.783072",
        "meta_mean_motion": 15.21639218,
        "meta_eccentricity": 0.00085187,
        "meta_inclination": 14.9786,
        "meta_ra_of_asc_node": 209.434,
        "meta_arg_of_pericenter": 133.9708,
        "meta_mean_anomaly": 226.1317,
        "meta_ephemeris_type": 0,
        "meta_classification_type": "U",
        "meta_norad_cat_id": 41167,
        "meta_element_set_no": 999,
        "meta_rev_at_epoch": 55267,
        "meta_bstar": 0.00025287461,
        "meta_mean_motion_dot": 6.651e-05,
        "meta_mean_motion_ddot": 0,
        "tle_line1": "1 41167U 15077B   25346.96980073  .00006651  00000+0  25287-3 0  9995",
        "tle_line2": "2 41167  14.9786 209.4340 0008518 133.9708 226.1317 15.21639218552676"
      },
      "geometry": {
        "type": "Point",
        "coordinates": [
          26.176728890329862,
          -1.7894143060160586
        ]
      }
    },
    {
      "type": "Feature",
      "properties": {
        "norad_id": 41194,
        "name": "GAOFEN-4",
        "group": "resource",
        "lat": -0.1249836084466169,
        "lon": -57.73259709000911,
        "alt_km": 35793.96083900791,
        "timestamp": "2025-12-14T07:33:19.135239+00:00",
        "meta_object_name": "GAOFEN-4",
        "meta_object_id": "2015-083A",
        "meta_epoch": "2025-12-13T16:48:21.582720",
        "meta_mean_motion": 1.00269213,
        "meta_eccentricity": 0.0003384,
        "meta_inclination": 0.173,
        "meta_ra_of_asc_node": 81.2734,
        "meta_arg_of_pericenter": 101.0783,
        "meta_mean_anomaly": 258.0516,
        "meta_ephemeris_type": 0,
        "meta_classification_type": "U",
        "meta_norad_cat_id": 41194,
        "meta_element_set_no": 999,
        "meta_rev_at_epoch": 3666,
        "meta_bstar": 0,
        "meta_mean_motion_dot": -3.19e-06,
        "meta_mean_motion_ddot": 0,
        "tle_line1": "1 41194U 15083A   25347.70024980 -.00000319  00000+0  00000+0 0  9999",
        "tle_line2": "2 41194   0.1730  81.2734 0003384 101.0783 258.0516  1.00269213 36667"
      },
      "geometry": {
        "type": "Point",
        "coordinates": [
          -57.73259709000911,
          -0.1249836084466169
        ]
      }
    },
    {
      "type": "Feature",
      "properties": {
        "norad_id": 41240,
        "name": "JASON-3",
        "group": "resource",
        "lat": 45.967949013480826,
        "lon": -178.10356573533522,
        "alt_km": 1310.3081342976184,
        "timestamp": "2025-12-14T07:33:19.135251+00:00",
        "meta_object_name": "JASON-3",
        "meta_object_id": "2016-002A",
        "meta_epoch": "2025-12-13T16:22:26.647968",
        "meta_mean_motion": 12.87626567,
        "meta_eccentricity": 0.00071426,
        "meta_inclination": 66.0391,
        "meta_ra_of_asc_node": 155.8426,
        "meta_arg_of_pericenter": 270.8565,
        "meta_mean_anomaly": 89.1635,
        "meta_ephemeris_type": 0,
        "meta_classification_type": "U",
        "meta_norad_cat_id": 41240,
        "meta_element_set_no": 999,
        "meta_rev_at_epoch": 46336,
        "meta_bstar": 0.00015740841,
        "meta_mean_motion_dot": -2.2e-07,
        "meta_mean_motion_ddot": 0,
        "tle_line1": "1 41240U 16002A   25347.68225287 -.00000022  00000+0  15741-3 0  9996",
        "tle_line2": "2 41240  66.0391 155.8426 0007142 270.8565  89.1635 12.87626567463360"
      },
      "geometry": {
        "type": "Point",
        "coordinates": [
          -178.10356573533522,
          45.967949013480826
        ]
      }
    },
    {
      "type": "Feature",
      "properties": {
        "norad_id": 41335,
        "name": "SENTINEL-3A",
        "group": "resource",
        "lat": 21.143683597147692,
        "lon": -123.32753770176025,
        "alt_km": 802.264940553523,
        "timestamp": "2025-12-14T07:33:19.135261+00:00",
        "meta_object_name": "SENTINEL-3A",
        "meta_object_id": "2016-011A",
        "meta_epoch": "2025-12-13T15:40:00.598944",
        "meta_mean_motion": 14.26731238,
        "meta_eccentricity": 9.466e-05,
        "meta_inclination": 98.6315,
        "meta_ra_of_asc_node": 52.6519,
        "meta_arg_of_pericenter": 91.1982,
        "meta_mean_anomaly": 268.9307,
        "meta_ephemeris_type": 0,
        "meta_classification_type": "U",
        "meta_norad_cat_id": 41335,
        "meta_element_set_no": 999,
        "meta_rev_at_epoch": 51160,
        "meta_bstar": 0.00012073903,
        "meta_mean_motion_dot": 2.48e-06,
        "meta_mean_motion_ddot": 0,
        "tle_line1": "1 41335U 16011A   25347.65278471  .00000248  00000+0  12074-3 0  9996",
        "tle_line2": "2 41335  98.6315  52.6519 0000946  91.1982 268.9307 14.26731238511602"
      },
      "geometry": {
        "type": "Point",
        "coordinates": [
          -123.32753770176025,
          21.143683597147692
        ]
      }
    }
  ]
}